STARLINK-1477           
1 45754U 20038AA  26068.63330424  .00035702  00000+0  19315-2 0  9992
2 45754  53.0515 213.2201 0000598  95.7123 264.3937 15.14348726316528
UMBRA-09                
1 60541U 24149CB  26068.82792263  .00023181  00000+0  12497-2 0  9996
2 60541  97.6984 154.5768 0001111 266.3706  93.7398 15.14785586 85665
